[{"OBJECT_NAME":"STARLINK-11632 [DTC]","OBJECT_ID":"2025-039E","EPOCH":"2025-11-01T06:00:10.361088","MEAN_MOTION":15.70926384,"ECCENTRICITY":6.716e-5,"INCLINATION":42.9993,"RA_OF_ASC_NODE":291.1815,"ARG_OF_PERICENTER":164.6998,"MEAN_ANOMALY":195.389,"EPHEMERIS_TYPE":0,"CLASSIFICATION_TYPE":"U","NORAD_CAT_ID":63108,"ELEMENT_SET_NO":999,"REV_AT_EPOCH":3941,"BSTAR":0.0021302765,"MEAN_MOTION_DOT":0.00283459,"MEAN_MOTION_DDOT":0},{"OBJECT_NAME":"STARLINK-11625 [DTC]","OBJECT_ID":"2025-039F","EPOCH":"2025-11-01T10:42:29.952864","MEAN_MOTION":15.70886291,"ECCENTRICITY":0.00021391,"INCLINATION":42.9997,"RA_OF_ASC_NODE":290.0754,"ARG_OF_PERICENTER":287.4575,"MEAN_ANOMALY":72.6059,"EPHEMERIS_TYPE":0,"CLASSIFICATION_TYPE":"U","NORAD_CAT_ID":63109,"ELEMENT_SET_NO":999,"REV_AT_EPOCH":3944,"BSTAR":0.0016345695,"MEAN_MOTION_DOT":0.00215232,"MEAN_MOTION_DDOT":0},{"OBJECT_NAME":"STARLINK-11601 [DTC]","OBJECT_ID":"2025-039G","EPOCH":"2025-11-01T10:19:32.784384","MEAN_MOTION":15.70959962,"ECCENTRICITY":0.00056907,"INCLINATION":42.9989,"RA_OF_ASC_NODE":289.946,"ARG_OF_PERICENTER":276.1897,"MEAN_ANOMALY":83.8322,"EPHEMERIS_TYPE":0,"CLASSIFICATION_TYPE":"U","NORAD_CAT_ID":63110,"ELEMENT_SET_NO":999,"REV_AT_EPOCH":3944,"BSTAR":0.0020363274,"MEAN_MOTION_DOT":0.00271041,"MEAN_MOTION_DDOT":0},{"OBJECT_NAME":"STARLINK-11630 [DTC]","OBJECT_ID":"2025-039H","EPOCH":"2025-10-31T10:25:11.478432","MEAN_MOTION":15.70893916,"ECCENTRICITY":8.885e-5,"INCLINATION":42.9979,"RA_OF_ASC_NODE":296.2476,"ARG_OF_PERICENTER":267.1681,"MEAN_ANOMALY":92.9085,"EPHEMERIS_TYPE":0,"CLASSIFICATION_TYPE":"U","NORAD_CAT_ID":63111,"ELEMENT_SET_NO":999,"REV_AT_EPOCH":3928,"BSTAR":0.0017175696,"MEAN_MOTION_DOT":0.00226565,"MEAN_MOTION_DDOT":0},{"OBJECT_NAME":"STARLINK-11590 [DTC]","OBJECT_ID":"2025-039J","EPOCH":"2025-11-01T06:30:45.289728","MEAN_MOTION":15.70923381,"ECCENTRICITY":6.426e-5,"INCLINATION":42.9992,"RA_OF_ASC_NODE":291.3502,"ARG_OF_PERICENTER":189.3481,"MEAN_ANOMALY":170.7375,"EPHEMERIS_TYPE":0,"CLASSIFICATION_TYPE":"U","NORAD_CAT_ID":63112,"ELEMENT_SET_NO":999,"REV_AT_EPOCH":3941,"BSTAR":0.0025199863,"MEAN_MOTION_DOT":0.00337581,"MEAN_MOTION_DDOT":0},{"OBJECT_NAME":"STARLINK-11598 [DTC]","OBJECT_ID":"2025-039K","EPOCH":"2025-11-01T10:27:11.752416","MEAN_MOTION":15.70954716,"ECCENTRICITY":0.00052363,"INCLINATION":43.0007,"RA_OF_ASC_NODE":289.9879,"ARG_OF_PERICENTER":278.6541,"MEAN_ANOMALY":81.3733,"EPHEMERIS_TYPE":0,"CLASSIFICATION_TYPE":"U","NORAD_CAT_ID":63113,"ELEMENT_SET_NO":999,"REV_AT_EPOCH":3944,"BSTAR":0.0020714994,"MEAN_MOTION_DOT":0.00275798,"MEAN_MOTION_DDOT":0},{"OBJECT_NAME":"STARLINK-11600 [DTC]","OBJECT_ID":"2025-039L","EPOCH":"2025-11-01T10:04:16.827744","MEAN_MOTION":15.70946252,"ECCENTRICITY":0.00014641,"INCLINATION":42.9987,"RA_OF_ASC_NODE":289.8584,"ARG_OF_PERICENTER":317.9267,"MEAN_ANOMALY":42.1488,"EPHEMERIS_TYPE":0,"CLASSIFICATION_TYPE":"U","NORAD_CAT_ID":63114,"ELEMENT_SET_NO":999,"REV_AT_EPOCH":3944,"BSTAR":0.0021400241,"MEAN_MOTION_DOT":0.00285043,"MEAN_MOTION_DDOT":0},{"OBJECT_NAME":"STARLINK-11597 [DTC]","OBJECT_ID":"2025-039M","EPOCH":"2025-11-01T09:49:00.245568","MEAN_MOTION":15.70937088,"ECCENTRICITY":0.00030844,"INCLINATION":42.9976,"RA_OF_ASC_NODE":289.7711,"ARG_OF_PERICENTER":29.1451,"MEAN_ANOMALY":330.9588,"EPHEMERIS_TYPE":0,"CLASSIFICATION_TYPE":"U","NORAD_CAT_ID":63115,"ELEMENT_SET_NO":999,"REV_AT_EPOCH":3944,"BSTAR":0.0024202648,"MEAN_MOTION_DOT":0.00323846,"MEAN_MOTION_DDOT":0},{"OBJECT_NAME":"STARLINK-11591 [DTC]","OBJECT_ID":"2025-039N","EPOCH":"2025-11-01T09:41:20.492160","MEAN_MOTION":15.70950938,"ECCENTRICITY":0.00014686,"INCLINATION":42.9982,"RA_OF_ASC_NODE":289.729,"ARG_OF_PERICENTER":319.9847,"MEAN_ANOMALY":40.0913,"EPHEMERIS_TYPE":0,"CLASSIFICATION_TYPE":"U","NORAD_CAT_ID":63116,"ELEMENT_SET_NO":999,"REV_AT_EPOCH":3944,"BSTAR":0.0025882574,"MEAN_MOTION_DOT":0.00347547,"MEAN_MOTION_DDOT":0},{"OBJECT_NAME":"STARLINK-32955","OBJECT_ID":"2025-039P","EPOCH":"2025-11-01T13:22:06.486528","MEAN_MOTION":15.27572071,"ECCENTRICITY":0.0001659,"INCLINATION":42.9989,"RA_OF_ASC_NODE":16.1444,"ARG_OF_PERICENTER":250.0465,"MEAN_ANOMALY":110.0208,"EPHEMERIS_TYPE":0,"CLASSIFICATION_TYPE":"U","NORAD_CAT_ID":63117,"ELEMENT_SET_NO":999,"REV_AT_EPOCH":3847,"BSTAR":0.0015174688,"MEAN_MOTION_DOT":0.00041722,"MEAN_MOTION_DDOT":0},{"OBJECT_NAME":"STARLINK-32945","OBJECT_ID":"2025-039Q","EPOCH":"2025-11-01T15:07:21.863424","MEAN_MOTION":15.2757926,"ECCENTRICITY":0.0001333,"INCLINATION":42.9985,"RA_OF_ASC_NODE":15.8319,"ARG_OF_PERICENTER":246.6961,"MEAN_ANOMALY":113.375,"EPHEMERIS_TYPE":0,"CLASSIFICATION_TYPE":"U","NORAD_CAT_ID":63118,"ELEMENT_SET_NO":999,"REV_AT_EPOCH":3848,"BSTAR":0.0012973351,"MEAN_MOTION_DOT":0.0003561,"MEAN_MOTION_DDOT":0},{"OBJECT_NAME":"STARLINK-32941","OBJECT_ID":"2025-039R","EPOCH":"2025-11-01T13:38:47.078016","MEAN_MOTION":15.27590095,"ECCENTRICITY":0.0002154,"INCLINATION":43.0032,"RA_OF_ASC_NODE":4.9688,"ARG_OF_PERICENTER":271.9643,"MEAN_ANOMALY":88.0962,"EPHEMERIS_TYPE":0,"CLASSIFICATION_TYPE":"U","NORAD_CAT_ID":63119,"ELEMENT_SET_NO":999,"REV_AT_EPOCH":3860,"BSTAR":0.0011437021,"MEAN_MOTION_DOT":0.00031354,"MEAN_MOTION_DDOT":0},{"OBJECT_NAME":"STARLINK-32942","OBJECT_ID":"2025-039S","EPOCH":"2025-11-01T13:42:27.415296","MEAN_MOTION":15.27589015,"ECCENTRICITY":0.00019168,"INCLINATION":43.0035,"RA_OF_ASC_NODE":16.2458,"ARG_OF_PERICENTER":285.9232,"MEAN_ANOMALY":74.1408,"EPHEMERIS_TYPE":0,"CLASSIFICATION_TYPE":"U","NORAD_CAT_ID":63120,"ELEMENT_SET_NO":999,"REV_AT_EPOCH":3847,"BSTAR":0.0016406206,"MEAN_MOTION_DOT":0.00045174,"MEAN_MOTION_DDOT":0},{"OBJECT_NAME":"STARLINK-32947","OBJECT_ID":"2025-039T","EPOCH":"2025-11-01T14:30:22.256064","MEAN_MOTION":15.27578894,"ECCENTRICITY":0.00011889,"INCLINATION":43.0037,"RA_OF_ASC_NODE":15.6346,"ARG_OF_PERICENTER":55.0562,"MEAN_ANOMALY":305.0402,"EPHEMERIS_TYPE":0,"CLASSIFICATION_TYPE":"U","NORAD_CAT_ID":63121,"ELEMENT_SET_NO":999,"REV_AT_EPOCH":3848,"BSTAR":0.0012485541,"MEAN_MOTION_DOT":0.00034254,"MEAN_MOTION_DDOT":0},{"OBJECT_NAME":"STARLINK-32961","OBJECT_ID":"2025-039U","EPOCH":"2025-11-01T12:24:57.272256","MEAN_MOTION":15.27574853,"ECCENTRICITY":0.00014736,"INCLINATION":43.0022,"RA_OF_ASC_NODE":16.7048,"ARG_OF_PERICENTER":248.2596,"MEAN_ANOMALY":111.8099,"EPHEMERIS_TYPE":0,"CLASSIFICATION_TYPE":"U","NORAD_CAT_ID":63122,"ELEMENT_SET_NO":999,"REV_AT_EPOCH":3846,"BSTAR":0.0010636705,"MEAN_MOTION_DOT":0.00029119,"MEAN_MOTION_DDOT":0},{"OBJECT_NAME":"STARLINK-32948","OBJECT_ID":"2025-039V","EPOCH":"2025-11-01T13:48:00.499392","MEAN_MOTION":15.27598598,"ECCENTRICITY":0.00015593,"INCLINATION":43.004,"RA_OF_ASC_NODE":16.2765,"ARG_OF_PERICENTER":253.8156,"MEAN_ANOMALY":106.2525,"EPHEMERIS_TYPE":0,"CLASSIFICATION_TYPE":"U","NORAD_CAT_ID":63123,"ELEMENT_SET_NO":999,"REV_AT_EPOCH":3847,"BSTAR":0.0017233075,"MEAN_MOTION_DOT":0.00047493,"MEAN_MOTION_DDOT":0}]
