STARLINK-11632 [DTC]    
1 63108U 25039E   25305.25011992  .00283459  00000+0  21303-2 0  9992
2 63108  42.9993 291.1815 0000671 164.6998 195.3890 15.70926384 39417
STARLINK-11625 [DTC]    
1 63109U 25039F   25305.44618001  .00215232  00000+0  16346-2 0  9993
2 63109  42.9997 290.0754 0002139 287.4575  72.6059 15.70886291 39447
STARLINK-11601 [DTC]    
1 63110U 25039G   25305.43024056  .00271041  00000+0  20363-2 0  9999
2 63110  42.9989 289.9460 0005690 276.1897  83.8322 15.70959962 39441
STARLINK-11630 [DTC]    
1 63111U 25039H   25304.43416063  .00226565  00000+0  17176-2 0  9991
2 63111  42.9979 296.2476 0000888 267.1681  92.9085 15.70893916 39289
STARLINK-11590 [DTC]    
1 63112U 25039J   25305.27135752  .00337581  00000+0  25200-2 0  9996
2 63112  42.9992 291.3502 0000642 189.3481 170.7375 15.70923381 39414
STARLINK-11598 [DTC]    
1 63113U 25039K   25305.43555269  .00275798  00000+0  20715-2 0  9991
2 63113  43.0007 289.9879 0005236 278.6541  81.3733 15.70954716 39441
STARLINK-11600 [DTC]    
1 63114U 25039L   25305.41963921  .00285043  00000+0  21400-2 0  9994
2 63114  42.9987 289.8584 0001464 317.9267  42.1488 15.70946252 39448
STARLINK-11597 [DTC]    
1 63115U 25039M   25305.40903062  .00323846  00000+0  24203-2 0  9992
2 63115  42.9976 289.7711 0003084  29.1451 330.9588 15.70937088 39441
STARLINK-11591 [DTC]    
1 63116U 25039N   25305.40370940  .00347547  00000+0  25883-2 0  9995
2 63116  42.9982 289.7290 0001468 319.9847  40.0913 15.70950938 39444
STARLINK-32955          
1 63117U 25039P   25305.55701952  .00041722  00000+0  15175-2 0  9992
2 63117  42.9989  16.1444 0001659 250.0465 110.0208 15.27572071 38475
STARLINK-32945          
1 63118U 25039Q   25305.63011416  .00035610  00000+0  12973-2 0  9993
2 63118  42.9985  15.8319 0001333 246.6961 113.3750 15.27579260 38486
STARLINK-32941          
1 63119U 25039R   25305.56860044  .00031354  00000+0  11437-2 0  9990
2 63119  43.0032   4.9688 0002154 271.9643  88.0962 15.27590095 38606
STARLINK-32942          
1 63120U 25039S   25305.57115064  .00045174  00000+0  16406-2 0  9994
2 63120  43.0035  16.2458 0001916 285.9232  74.1408 15.27589015 38472
STARLINK-32947          
1 63121U 25039T   25305.60442426  .00034254  00000+0  12486-2 0  9995
2 63121  43.0037  15.6346 0001188  55.0562 305.0402 15.27578894 38481
STARLINK-32961          
1 63122U 25039U   25305.51732954  .00029119  00000+0  10637-2 0  9994
2 63122  43.0022  16.7048 0001473 248.2596 111.8099 15.27574853 38461
STARLINK-32948          
1 63123U 25039V   25305.57500578  .00047493  00000+0  17233-2 0  9990
2 63123  43.0040  16.2765 0001559 253.8156 106.2525 15.27598598 38477
